ONEWEB-0709             
1 55172U 23004AJ  25342.23350753 -.00000157  00000+0 -47810-3 0  9990
2 55172  87.8854  59.1125 0001486  71.2188 288.9101 13.11417232140842
ONEWEB-0710             
1 55173U 23004AK  25342.22430955  .00000050  00000+0  96839-4 0  9999
2 55173  87.9113  43.8444 0001609 105.6760 254.4549 13.17650024142436
ONEWEB-0711             
1 55174U 23004AL  25342.20470549  .00000551  00000+0  15200-2 0  9998
2 55174  87.8865  59.0916 0001422 133.3094 226.8153 13.11411980140807
ONEWEB-0713             
1 55175U 23004AM  25342.22334738 -.00000462  00000+0 -13401-2 0  9994
2 55175  87.8855  59.0913 0001547 135.8213 224.3039 13.11416866140794
ONEWEB-0715             
1 55176U 23004AN  25342.21826043  .00000471  00000+0  12934-2 0  9997
2 55176  87.8860  59.0923 0001132  82.0558 278.0699 13.11417503140839
ONEWEB-0716             
1 55177U 23004AP  25342.21756600  .00000044  00000+0  79835-4 0  9990
2 55177  87.9112  43.8456 0001992  97.9769 262.1589 13.17648923142434
ONEWEB-0717             
1 55178U 23004AQ  25342.20068821  .00000080  00000+0  17292-3 0  9999
2 55178  87.9124  43.8196 0001288 122.6613 237.4643 13.17649451142489
ONEWEB-0719             
1 55179U 23004AR  25342.21081007  .00000107  00000+0  24148-3 0  9990
2 55179  87.9125  43.7999 0002005 103.1801 256.9555 13.17649536142439
ONEWEB-0530             
1 55796U 23029A   25342.18332783  .00000096  00000+0  20490-3 0  9991
2 55796  87.9195 312.5758 0001622  99.8406 260.2911 13.20773884135936
ONEWEB-0534             
1 55797U 23029B   25342.17070500  .00000052  00000+0  95213-4 0  9995
2 55797  87.9192 312.5789 0001958  84.6348 275.5009 13.20774219135937
ONEWEB-0556             
1 55798U 23029C   25341.94976468  .00000015  00000+0  40033-5 0  9998
2 55798  87.9195 312.6228 0002636  98.9461 261.1971 13.20772045135909
ONEWEB-0562             
1 55799U 23029D   25342.31592418  .00000065  00000+0  12719-3 0  9993
2 55799  87.9186 312.5321 0001939 111.3359 248.7981 13.20771105135957
ONEWEB-0563             
1 55800U 23029E   25342.30959421  .00000074  00000+0  15062-3 0  9990
2 55800  87.9191 312.5606 0002099  83.1804 276.9569 13.20773639135949
ONEWEB-0564             
1 55801U 23029F   25341.92449491  .00000012  00000+0 -35922-5 0  9991
2 55801  87.9187 312.6137 0001695  95.9784 264.1542 13.20769191135908
ONEWEB-0638             
1 55802U 23029G   25342.26132147  .00000180  00000+0  45039-3 0  9990
2 55802  87.8979 327.8066 0002035  98.7615 261.3745 13.14503274134318
ONEWEB-0639             
1 55803U 23029H   25342.27686373  .00000081  00000+0  17010-3 0  9995
2 55803  87.9188 342.9684 0002631  70.5261 289.6156 13.19724124133720
ONEWEB-0640             
1 55804U 23029J   25342.19471042  .00000169  00000+0  42250-3 0  9993
2 55804  87.8983 327.8071 0002512  93.4168 266.7249 13.14503286134328
ONEWEB-0641             
1 55805U 23029K   25342.27212394  .00000016  00000+0  64752-5 0  9990
2 55805  87.9200 342.9499 0001904  84.5777 275.5573 13.19724488133731
ONEWEB-0642             
1 55806U 23029L   25342.03993655  .00000044  00000+0  77699-4 0  9995
2 55806  87.9191 343.0197 0002298  68.5704 291.5674 13.19725039133695
ONEWEB-0643             
1 55807U 23029M   25342.24069346 -.00000006  00000+0 -50164-4 0  9998
2 55807  87.8986 327.7842 0001927  64.6240 295.5089 13.14504010134305
ONEWEB-0644             
1 55808U 23029N   25342.26265664  .00000005  00000+0 -18723-4 0  9995
2 55808  87.9192 342.9848 0001947  77.6589 282.4762 13.19726069133726
ONEWEB-0645             
1 55809U 23029P   25342.28475971  .00000021  00000+0  21138-4 0  9993
2 55809  87.9183 342.9742 0002318  83.6654 276.4742 13.19725275133722
ONEWEB-0646             
1 55810U 23029Q   25342.07468614  .00000027  00000+0  34691-4 0  9992
2 55810  87.9192 343.0068 0001881  80.6659 279.4686 13.19727665133683
ONEWEB-0648             
1 55811U 23029R   25342.20897863 -.00000108  00000+0 -32693-3 0  9991
2 55811  87.8984 327.7519 0002660  74.5074 285.6349 13.14504356134301
ONEWEB-0649             
1 55812U 23029S   25342.25158718 -.00000055  00000+0 -16946-3 0  9990
2 55812  87.9197 342.9679 0002159  81.9060 278.2318 13.19724544133744
ONEWEB-0650             
1 55813U 23029T   25342.24683980  .00000032  00000+0  48011-4 0  9996
2 55813  87.9186 342.9750 0002068  77.3741 282.7623 13.19723575133716
ONEWEB-0652             
1 55814U 23029U   25342.03771855  .00000161  00000+0  39873-3 0  9991
2 55814  87.8981 327.8067 0001628  89.4401 270.6915 13.14503250134251
ONEWEB-0653             
1 55815U 23029V   25342.25021390  .00000161  00000+0  39956-3 0  9990
2 55815  87.8979 327.7540 0001791  92.1684 267.9651 13.14503446134319
ONEWEB-0654             
1 55816U 23029W   25342.24545255  .00000018  00000+0  15352-4 0  9997
2 55816  87.8981 327.7543 0001574  97.5318 262.5990 13.14503887134336
ONEWEB-0656             
1 55817U 23029X   25342.29697409  .00000024  00000+0  25894-4 0  9991
2 55817  87.9199 312.4961 0001617  97.1986 262.9332 13.20770026135950
ONEWEB-0657             
1 55818U 23029Y   25342.24212401  .00000001  00000+0 -29958-4 0  9993
2 55818  87.9186 342.9782 0000999  86.6160 273.5087 13.19726438133729
ONEWEB-0658             
1 55819U 23029Z   25342.23737690 -.00000048  00000+0 -15142-3 0  9996
2 55819  87.9205 342.9319 0001961  76.3455 283.7896 13.19724988133731
ONEWEB-0660             
1 55820U 23029AA  25342.22325291 -.00000244  00000+0 -69135-3 0  9996
2 55820  87.8994 327.7374 0002151  87.3527 272.7848 13.14503696134319
ONEWEB-0661             
1 55821U 23029AB  25342.25814336  .00000303  00000+0  78391-3 0  9991
2 55821  87.8980 327.7963 0002089  90.1584 269.9785 13.14504190134301
ONEWEB-0662             
1 55822U 23029AC  25342.21690708 -.00000290  00000+0 -81562-3 0  9994
2 55822  87.8987 327.8104 0002143  85.6867 274.4508 13.14504121134343
ONEWEB-0663             
1 55823U 23029AD  25342.19253270  .00000029  00000+0  39529-4 0  9996
2 55823  87.9210 312.5829 0002232  79.0919 281.0465 13.20853038135936
ONEWEB-0664             
1 55824U 23029AE  25342.28433838  .00000003  00000+0 -24350-4 0  9996
2 55824  87.9192 312.5710 0001991  93.6905 266.4456 13.20773438135946
ONEWEB-0665             
1 55825U 23029AF  25342.25497234  .00000171  00000+0  42557-3 0  9997
2 55825  87.8981 327.7746 0002040  83.3715 276.7647 13.14504046134327
ONEWEB-0666             
1 55826U 23029AG  25342.20227337  .00000107  00000+0  23234-3 0  9998
2 55826  87.9188 312.5762 0001109  83.4990 276.6270 13.20769777135940
ONEWEB-0667             
1 55827U 23029AH  25342.19597776  .00000038  00000+0  62751-4 0  9995
2 55827  87.9197 312.5098 0002003  85.0971 275.0391 13.20770783135939
ONEWEB-0669             
1 55828U 23029AJ  25342.19123975  .00000055  00000+0  10299-3 0  9990
2 55828  87.9190 312.5456 0001711 105.9686 254.1636 13.20770378135931
ONEWEB-0670             
1 55829U 23029AK  25342.23277614 -.00000186  00000+0 -53595-3 0  9999
2 55829  87.8988 327.7995 0002141  93.0517 267.0858 13.14502537134346
ONEWEB-0671             
1 55830U 23029AL  25342.08100170 -.00000081  00000+0 -23352-3 0  9998
2 55830  87.9192 343.0058 0001962  89.0119 271.1239 13.19725611133691
ONEWEB-0672             
1 55831U 23029AM  25342.18649151  .00000046  00000+0  81786-4 0  9992
2 55831  87.9197 312.5272 0001599  86.8163 273.3154 13.20769668135937
ONEWEB-0673             
1 55832U 23029AN  25342.28555683  .00004128  00000+0  10278-1 0  9990
2 55832  87.9208 342.9447 0001759  90.5910 269.5424 13.19697514133722
ONEWEB-0674             
1 55833U 23029AP  25342.20106127  .00000134  00000+0  32691-3 0  9996
2 55833  87.8982 327.7838 0002151  95.8419 264.2956 13.14502995134327
ONEWEB-0675             
1 55834U 23029AQ  25342.30055392 -.00000012  00000+0 -62680-4 0  9994
2 55834  87.9187 342.9709 0001523  83.0862 277.0444 13.19723803133742
ONEWEB-0720             
1 55835U 23029AR  25342.29265715  .00000078  00000+0  16166-3 0  9992
2 55835  87.9189 342.9705 0002066  82.0326 278.1041 13.19724484133660
ONEWEB-0537             
1 56046U 23043A   25342.29023694  .00000065  00000+0  13708-3 0  9996
2 56046  87.9047 266.7826 0001528  72.4373 287.6925 13.16594511133841
ONEWEB-0538             
1 56047U 23043B   25342.28389896  .00000040  00000+0  71698-4 0  9991
2 56047  87.9043 266.7883 0001724  64.4026 295.7283 13.16595437133851
ONEWEB-0546             
1 56048U 23043C   25342.27124120  .00000078  00000+0  17028-3 0  9995
2 56048  87.9055 266.7817 0001053  77.3089 282.8160 13.16595573133840
ONEWEB-0547             
1 56049U 23043D   25342.26686941  .00000155  00000+0  34440-3 0  9992
2 56049  87.9219 282.0530 0001899  73.2945 286.8397 13.21824623133001
ONEWEB-0548             
1 56050U 23043E   25342.29576851  .00000088  00000+0  19751-3 0  9998
2 56050  87.9036 266.7846 0001975  88.2476 271.8881 13.16593124133846
ONEWEB-0549             
1 56051U 23043F   25342.25946217  .00000168  00000+0  37457-3 0  9994
2 56051  87.9212 282.0686 0001927  69.6197 290.5143 13.21825066133002
ONEWEB-0550             
1 56052U 23043G   25342.24628998  .00000126  00000+0  27271-3 0  9994
2 56052  87.9216 282.0664 0001790  81.4082 278.7255 13.21821101133004
ONEWEB-0551             
1 56053U 23043H   25342.25134592  .00000169  00000+0  41536-3 0  9995
2 56053  87.8986 297.3326 0001919  74.4103 285.7239 13.15548858131298
ONEWEB-0552             
1 56054U 23043J   25342.31705987  .00000137  00000+0  30056-3 0  9995
2 56054  87.9215 282.0609 0002097  75.7906 284.3461 13.21825630133010
ONEWEB-0553             
1 56055U 23043K   25342.27756409  .00000094  00000+0  21109-3 0  9997
2 56055  87.9045 266.7885 0001426  80.4888 279.6404 13.16594837133856
ONEWEB-0554             
1 56056U 23043L   25342.26489504  .00000130  00000+0  30640-3 0  9997
2 56056  87.9032 266.8056 0001811  83.7838 276.3499 13.16596059133837
